SAUDISAT 1C (SO-50)     
1 27607U 02058C   25107.90231705  .00002950  00000+0  38621-3 0  9997
2 27607  64.5559   3.1191 0050033 346.5715  13.4054 14.81439326201422
SAUDISAT 2              
1 28371U 04025F   25107.92134102  .00000736  00000+0  17663-3 0  9990
2 28371  98.5233  92.7153 0025272 160.3149 199.9029 14.56264650103880
SAUDISAT 3              
1 31118U 07012B   25107.84447981  .00000783  00000+0  13571-3 0  9991
2 31118  98.0947  54.5549 0015660 136.8398 223.4039 14.70987486965211
PISAT                   
1 41784U 16059B   25107.93421086  .00002224  00000+0  39544-3 0  9990
2 41784  97.8191 122.1397 0031085 121.8646 238.5591 14.67772639457338
FLYING LAPTOP           
1 42831U 17042G   25108.17155191  .00003106  00000+0  26418-3 0  9991
2 42831  97.4040 278.4097 0013233 123.4951 236.7539 14.98453968422750
SALSAT                  
1 46495U 20068K   25107.90040279  .00012232  00000+0  54109-3 0  9991
2 46495  97.8580  83.5420 0011318 356.5460   3.5695 15.21784398250511
